ONEWEB-0346             
1 49212U 21083AC  24054.48963753  .00000073  00000+0  15210-3 0  9993
2 49212  87.9234 143.5909 0002065 119.3376 240.7962 13.18687168118657
ONEWEB-0348             
1 49213U 21083AD  24054.57743307  .00000064  00000+0  12579-3 0  9990
2 49213  87.9129  82.5461 0001634 116.1055 244.0247 13.20770850125325
ONEWEB-0350             
1 49214U 21083AE  24054.46268050 -.00000193  00000+0 -56302-3 0  9993
2 49214  87.8982 128.3758 0001617 114.3973 245.7325 13.13472012120040
ONEWEB-0351             
1 49215U 21083AF  24054.57112252  .00000071  00000+0  14359-3 0  9997
2 49215  87.9126  82.5515 0001886  80.7991 279.3355 13.20771007125289
ONEWEB-0352             
1 49216U 21083AG  24054.59599527 -.00000031  00000+0 -11941-3 0  9996
2 49216  87.8985 128.3772 0001879  96.1154 264.0189 13.13470683120155
ONEWEB-0354             
1 49217U 21083AH  24054.59637168  .00000037  00000+0  59777-4 0  9995
2 49217  87.9129  82.5272 0001551  94.4270 265.7040 13.20770675125320
ONEWEB-0355             
1 49218U 21083AJ  24054.47378954 -.00000045  00000+0 -15690-3 0  9994
2 49218  87.8984 128.4004 0001728 100.1607 259.9717 13.13472382120010
ONEWEB-0357             
1 49219U 21083AK  24054.59321316 -.00000013  00000+0 -62792-4 0  9999
2 49219  87.9126  82.5502 0001819  95.5074 264.6267 13.20770456125322
